[
    {
        "Altitude(m)": 604221.2188467456,
        "Argument of Periapsis(deg)": 0.0,
        "Eccentricity": 0.0,
        "Inclination(deg)": 60.0,
        "Latitude(deg)": 14.117328654147707,
        "Longitude(deg)": 33.33412528068486,
        "Mean Anomaly(deg)": 16.363600000000012,
        "RAAN(deg)": 125.00000000000001,
        "Satellite Name": "Test1 551",
        "Satellite Number": 551,
        "Semi-Major Axis(m)": 6980739.136638005,
        "Time(s)": 0
    },
    {
        "Altitude(m)": 604235.3603662215,
        "Argument of Periapsis(deg)": 0.00010418945913296404,
        "Eccentricity": 0.0,
        "Inclination(deg)": 60.0,
        "Latitude(deg)": 14.651725989850336,
        "Longitude(deg)": 33.62257120577664,
        "Mean Anomaly(deg)": 16.983706145461838,
        "RAAN(deg)": 124.99957995086027,
        "Satellite Name": "Test1 551",
        "Satellite Number": 551,
        "Semi-Major Axis(m)": 6980739.136638005,
        "Time(s)": 10
    },
    {
        "Altitude(m)": 604252.3989860184,
        "Argument of Periapsis(deg)": 0.0002083789182659281,
        "Eccentricity": 0.0,
        "Inclination(deg)": 60.0,
        "Latitude(deg)": 15.185633514200655,
        "Longitude(deg)": 33.91262013563619,
        "Mean Anomaly(deg)": 17.603812290923667,
        "RAAN(deg)": 124.99915990172053,
        "Satellite Name": "Test1 551",
        "Satellite Number": 551,
        "Semi-Major Axis(m)": 6980739.136638005,
        "Time(s)": 20
    },
    {
        "Altitude(m)": 604272.3028770983,
        "Argument of Periapsis(deg)": 0.00031256837739889213,
        "Eccentricity": 0.0,
        "Inclination(deg)": 60.0,
        "Latitude(deg)": 15.719029922693863,
        "Longitude(deg)": 34.20433958244793,
        "Mean Anomaly(deg)": 18.223918436385496,
        "RAAN(deg)": 124.99873985258078,
        "Satellite Name": "Test1 551",
        "Satellite Number": 551,
        "Semi-Major Axis(m)": 6980739.136638005,
        "Time(s)": 30
    },
    {
        "Altitude(m)": 604295.0389356774,
        "Argument of Periapsis(deg)": 0.0004167578365318562,
        "Eccentricity": 0.0,
        "Inclination(deg)": 60.0,
        "Latitude(deg)": 16.251893575109197,
        "Longitude(deg)": 34.49779858101888,
        "Mean Anomaly(deg)": 18.84402458184732,
        "RAAN(deg)": 124.99831980344105,
        "Satellite Name": "Test1 551",
        "Satellite Number": 551,
        "Semi-Major Axis(m)": 6980739.136638005,
        "Time(s)": 40
    },
    {
        "Altitude(m)": 604320.572802185,
        "Argument of Periapsis(deg)": 0.0005209472956648203,
        "Eccentricity": 0.0,
        "Inclination(deg)": 60.0,
        "Latitude(deg)": 16.784202479471812,
        "Longitude(deg)": 34.79306672435955,
        "Mean Anomaly(deg)": 19.46413072730915,
        "RAAN(deg)": 124.99789975430129,
        "Satellite Name": "Test1 551",
        "Satellite Number": 551,
        "Semi-Major Axis(m)": 6980739.136638005,
        "Time(s)": 50
    },
    {
        "Altitude(m)": 604348.8688807725,
        "Argument of Periapsis(deg)": 0.0006251367547977843,
        "Eccentricity": 0.0,
        "Inclination(deg)": 60.0,
        "Latitude(deg)": 17.31593427553411,
        "Longitude(deg)": 35.09021471299273,
        "Mean Anomaly(deg)": 20.084236872770976,
        "RAAN(deg)": 124.99747970516155,
        "Satellite Name": "Test1 551",
        "Satellite Number": 551,
        "Semi-Major Axis(m)": 6980739.136638005,
        "Time(s)": 60
    },
    {
        "Altitude(m)": 604379.8903594244,
        "Argument of Periapsis(deg)": 0.0007293262139307483,
        "Eccentricity": 0.0,
        "Inclination(deg)": 60.0,
        "Latitude(deg)": 17.847066217750783,
        "Longitude(deg)": 35.38931490514147,
        "Mean Anomaly(deg)": 20.70434301823283,
        "RAAN(deg)": 124.9970596560218,
        "Satellite Name": "Test1 551",
        "Satellite Number": 551,
        "Semi-Major Axis(m)": 6980739.136638005,
        "Time(s)": 70
    },
    {
        "Altitude(m)": 604413.5992306351,
        "Argument of Periapsis(deg)": 0.0008335156730637124,
        "Eccentricity": 0.0,
        "Inclination(deg)": 60.0,
        "Latitude(deg)": 18.377575157720873,
        "Longitude(deg)": 35.69044035494714,
        "Mean Anomaly(deg)": 21.32444916369466,
        "RAAN(deg)": 124.99663960688207,
        "Satellite Name": "Test1 551",
        "Satellite Number": 551,
        "Semi-Major Axis(m)": 6980739.136638005,
        "Time(s)": 80
    },
    {
        "Altitude(m)": 604449.9563126592,
        "Argument of Periapsis(deg)": 0.0009377051321966765,
        "Eccentricity": 0.0,
        "Inclination(deg)": 60.0,
        "Latitude(deg)": 18.907437526077473,
        "Longitude(deg)": 35.9936653644871,
        "Mean Anomaly(deg)": 21.944555309156485,
        "RAAN(deg)": 124.99621955774232,
        "Satellite Name": "Test1 551",
        "Satellite Number": 551,
        "Semi-Major Axis(m)": 6980739.136638005,
        "Time(s)": 90
    },
    {
        "Altitude(m)": 604488.9212713109,
        "Argument of Periapsis(deg)": 0.0010418945913296407,
        "Eccentricity": 0.0,
        "Inclination(deg)": 60.0,
        "Latitude(deg)": 19.436629313796583,
        "Longitude(deg)": 36.2990660367414,
        "Mean Anomaly(deg)": 22.564661454618314,
        "RAAN(deg)": 124.99579950860259,
        "Satellite Name": "Test1 551",
        "Satellite Number": 551,
        "Semi-Major Axis(m)": 6980739.136638005,
        "Time(s)": 100
    },
    {
        "Altitude(m)": 604530.4526422898,
        "Argument of Periapsis(deg)": 0.0011460840504626045,
        "Eccentricity": 0.0,
        "Inclination(deg)": 60.0,
        "Latitude(deg)": 19.96512605289685,
        "Longitude(deg)": 36.60671931665272,
        "Mean Anomaly(deg)": 23.18476760008014,
        "RAAN(deg)": 124.99537945946284,
        "Satellite Name": "Test1 551",
        "Satellite Number": 551,
        "Semi-Major Axis(m)": 6980739.136638005,
        "Time(s)": 110
    },
    {
        "Altitude(m)": 604574.5078540515,
        "Argument of Periapsis(deg)": 0.0012502735095955685,
        "Eccentricity": 0.0,
        "Inclination(deg)": 60.0,
        "Latitude(deg)": 20.492902796507757,
        "Longitude(deg)": 36.91670354604665,
        "Mean Anomaly(deg)": 23.80487374554197,
        "RAAN(deg)": 124.9949594103231,
        "Satellite Name": "Test1 551",
        "Satellite Number": 551,
        "Semi-Major Axis(m)": 6980739.136638005,
        "Time(s)": 120
    },
    {
        "Altitude(m)": 604621.0432511872,
        "Argument of Periapsis(deg)": 0.0013544629687285324,
        "Eccentricity": 0.0,
        "Inclination(deg)": 60.0,
        "Latitude(deg)": 21.019934098276,
        "Longitude(deg)": 37.22909901955346,
        "Mean Anomaly(deg)": 24.424979891003794,
        "RAAN(deg)": 124.99453936118336,
        "Satellite Name": "Test1 551",
        "Satellite Number": 551,
        "Semi-Major Axis(m)": 6980739.136638005,
        "Time(s)": 130
    },
    {
        "Altitude(m)": 604670.0141182925,
        "Argument of Periapsis(deg)": 0.0014586524278614966,
        "Eccentricity": 0.0,
        "Inclination(deg)": 60.0,
        "Latitude(deg)": 21.54619399107911,
        "Longitude(deg)": 37.5439870286715,
        "Mean Anomaly(deg)": 25.045086036465623,
        "RAAN(deg)": 124.99411931204362,
        "Satellite Name": "Test1 551",
        "Satellite Number": 551,
        "Semi-Major Axis(m)": 6980739.136638005,
        "Time(s)": 140
    },
    {
        "Altitude(m)": 604721.3747043542,
        "Argument of Periapsis(deg)": 0.0015628418869944607,
        "Eccentricity": 0.0,
        "Inclination(deg)": 60.0,
        "Latitude(deg)": 22.071655965021108,
        "Longitude(deg)": 37.86145041973009,
        "Mean Anomaly(deg)": 25.66519218192745,
        "RAAN(deg)": 124.99369926290387,
        "Satellite Name": "Test1 551",
        "Satellite Number": 551,
        "Semi-Major Axis(m)": 6980739.136638005,
        "Time(s)": 150
    },
    {
        "Altitude(m)": 604775.0782475645,
        "Argument of Periapsis(deg)": 0.0016670313461274247,
        "Eccentricity": 0.0,
        "Inclination(deg)": 60.0,
        "Latitude(deg)": 22.59629294467815,
        "Longitude(deg)": 38.18157415288576,
        "Mean Anomaly(deg)": 26.285298327389278,
        "RAAN(deg)": 124.99327921376414,
        "Satellite Name": "Test1 551",
        "Satellite Number": 551,
        "Semi-Major Axis(m)": 6980739.136638005,
        "Time(s)": 160
    },
    {
        "Altitude(m)": 604831.0770006555,
        "Argument of Periapsis(deg)": 0.0017712208052603888,
        "Eccentricity": 0.0,
        "Inclination(deg)": 60.0,
        "Latitude(deg)": 23.12007726555967,
        "Longitude(deg)": 38.50444434928159,
        "Mean Anomaly(deg)": 26.90540447285113,
        "RAAN(deg)": 124.99285916462439,
        "Satellite Name": "Test1 551",
        "Satellite Number": 551,
        "Semi-Major Axis(m)": 6980739.136638005,
        "Time(s)": 170
    },
    {
        "Altitude(m)": 604889.3222566366,
        "Argument of Periapsis(deg)": 0.001875410264393353,
        "Eccentricity": 0.0,
        "Inclination(deg)": 60.0,
        "Latitude(deg)": 23.64298064975813,
        "Longitude(deg)": 38.8301488521178,
        "Mean Anomaly(deg)": 27.525510618312957,
        "RAAN(deg)": 124.99243911548466,
        "Satellite Name": "Test1 551",
        "Satellite Number": 551,
        "Semi-Major Axis(m)": 6980739.136638005,
        "Time(s)": 180
    },
    {
        "Altitude(m)": 604949.7643749822,
        "Argument of Periapsis(deg)": 0.0019795997235263173,
        "Eccentricity": 0.0,
        "Inclination(deg)": 60.0,
        "Latitude(deg)": 24.164974180752104,
        "Longitude(deg)": 39.15877778875476,
        "Mean Anomaly(deg)": 28.14561676377479,
        "RAAN(deg)": 124.99201906634491,
        "Satellite Name": "Test1 551",
        "Satellite Number": 551,
        "Semi-Major Axis(m)": 6980739.136638005,
        "Time(s)": 190
    }
]